{"type": "FeatureCollection", "features": [ {"type": "Feature", "properties": {"norad_id": 67133, "name": "KUIPER-00144", "group": "last-30-days", "lat": -30.960437349882852, "lon": -96.45906538017196, "alt_km": 463.5164791222178, "timestamp": "2025-12-27T04:40:44.222631+00:00", "meta": {"OBJECT_NAME": "KUIPER-00144", "OBJECT_ID": "2025-301A", "EPOCH": "2025-12-26T21:28:26.216832", "MEAN_MOTION": 15.35490951, "ECCENTRICITY": 0.00060514, "INCLINATION": 51.871, "RA_OF_ASC_NODE": 56.8755, "ARG_OF_PERICENTER": 124.7391, "MEAN_ANOMALY": 235.4166, "EPHEMERIS_TYPE": 0, "CLASSIFICATION_TYPE": "U", "NORAD_CAT_ID": 67133, "ELEMENT_SET_NO": 999, "REV_AT_EPOCH": 254, "BSTAR": 0.00095257397, "MEAN_MOTION_DOT": 0.00033135, "MEAN_MOTION_DDOT": 0}, "tle": {"line1": "1 67133U 25301A   25360.89474788  .00033135  00000+0  95257-3 0  9997", "line2": "2 67133  51.8710  56.8755 0006051 124.7391 235.4166 15.35490951  2549"}}, "geometry": {"type": "Point", "coordinates": [-96.45906538017196, -30.960437349882852]}}, {"type": "Feature", "properties": {"norad_id": 67134, "name": "KUIPER-00164", "group": "last-30-days", "lat": -47.3620190531987, "lon": -66.09448311855223, "alt_km": 463.50982202115483, "timestamp": "2025-12-27T04:40:44.222641+00:00", "meta": {"OBJECT_NAME": "KUIPER-00164", "OBJECT_ID": "2025-301B", "EPOCH": "2025-12-26T21:21:12.186432", "MEAN_MOTION": 15.36183615, "ECCENTRICITY": 0.00031295, "INCLINATION": 51.8732, "RA_OF_ASC_NODE": 56.8408, "ARG_OF_PERICENTER": 107.8018, "MEAN_ANOMALY": 252.331, "EPHEMERIS_TYPE": 0, "CLASSIFICATION_TYPE": "U", "NORAD_CAT_ID": 67134, "ELEMENT_SET_NO": 999, "REV_AT_EPOCH": 272, "BSTAR": 0.001017731, "MEAN_MOTION_DOT": 0.00036231, "MEAN_MOTION_DDOT": 0}, "tle": {"line1": "1 67134U 25301B   25360.88972438  .00036231  00000+0  10177-2 0  9999", "line2": "2 67134  51.8732  56.8408 0003129 107.8018 252.3310 15.36183615  2726"}}, "geometry": {"type": "Point", "coordinates": [-66.09448311855223, -47.3620190531987]}}, {"type": "Feature", "properties": {"norad_id": 67135, "name": "KUIPER-00175", "group": "last-30-days", "lat": -51.82395071868963, "lon": -37.3765585216787, "alt_km": 462.08890879494356, "timestamp": "2025-12-27T04:40:44.222651+00:00", "meta": {"OBJECT_NAME": "KUIPER-00175", "OBJECT_ID": "2025-301C", "EPOCH": "2025-12-26T19:42:42.119712", "MEAN_MOTION": 15.36621513, "ECCENTRICITY": 0.00023014, "INCLINATION": 51.8745, "RA_OF_ASC_NODE": 57.1268, "ARG_OF_PERICENTER": 57.6434, "MEAN_ANOMALY": 302.4774, "EPHEMERIS_TYPE": 0, "CLASSIFICATION_TYPE": "U", "NORAD_CAT_ID": 67135, "ELEMENT_SET_NO": 999, "REV_AT_EPOCH": 260, "BSTAR": 0.00053936817, "MEAN_MOTION_DOT": 0.00019249, "MEAN_MOTION_DDOT": 0}, "tle": {"line1": "1 67135U 25301C   25360.82132083  .00019249  00000+0  53937-3 0  9990", "line2": "2 67135  51.8745  57.1268 0002301  57.6434 302.4774 15.36621513  2606"}}, "geometry": {"type": "Point", "coordinates": [-37.3765585216787, -51.82395071868963]}}, {"type": "Feature", "properties": {"norad_id": 67136, "name": "KUIPER-00179", "group": "last-30-days", "lat": -49.88530007518108, "lon": -55.87611608352826, "alt_km": 463.62902713174935, "timestamp": "2025-12-27T04:40:44.222662+00:00", "meta": {"OBJECT_NAME": "KUIPER-00179", "OBJECT_ID": "2025-301D", "EPOCH": "2025-12-26T18:12:00.163008", "MEAN_MOTION": 15.3628107, "ECCENTRICITY": 0.00029941, "INCLINATION": 51.8746, "RA_OF_ASC_NODE": 57.4564, "ARG_OF_PERICENTER": 88.5033, "MEAN_ANOMALY": 271.6296, "EPHEMERIS_TYPE": 0, "CLASSIFICATION_TYPE": "U", "NORAD_CAT_ID": 67136, "ELEMENT_SET_NO": 999, "REV_AT_EPOCH": 270, "BSTAR": 0.00083357901, "MEAN_MOTION_DOT": 0.00029673, "MEAN_MOTION_DDOT": 0}, "tle": {"line1": "1 67136U 25301D   25360.75833522  .00029673  00000+0  83358-3 0  9991", "line2": "2 67136  51.8746  57.4564 0002994  88.5033 271.6296 15.36281070  2703"}}, "geometry": {"type": "Point", "coordinates": [-55.87611608352826, -49.88530007518108]}}, {"type": "Feature", "properties": {"norad_id": 67137, "name": "KUIPER-00181", "group": "last-30-days", "lat": -0.41334722808963276, "lon": -124.16604175918312, "alt_km": 457.5508766344301, "timestamp": "2025-12-27T04:40:44.222674+00:00", "meta": {"OBJECT_NAME": "KUIPER-00181", "OBJECT_ID": "2025-301E", "EPOCH": "2025-12-26T18:31:05.609280", "MEAN_MOTION": 15.34464358, "ECCENTRICITY": 0.00100169, "INCLINATION": 51.8644, "RA_OF_ASC_NODE": 57.5486, "ARG_OF_PERICENTER": 145.4576, "MEAN_ANOMALY": 214.7062, "EPHEMERIS_TYPE": 0, "CLASSIFICATION_TYPE": "U", "NORAD_CAT_ID": 67137, "ELEMENT_SET_NO": 999, "REV_AT_EPOCH": 268, "BSTAR": 0.00070630958, "MEAN_MOTION_DOT": 0.00023665, "MEAN_MOTION_DDOT": 0}, "tle": {"line1": "1 67137U 25301E   25360.77159270  .00023665  00000+0  70631-3 0  9990", "line2": "2 67137  51.8644  57.5486 0010016 145.4576 214.7062 15.34464358  2680"}}, "geometry": {"type": "Point", "coordinates": [-124.16604175918312, -0.41334722808963276]}}, {"type": "Feature", "properties": {"norad_id": 67138, "name": "KUIPER-00183", "group": "last-30-days", "lat": 9.943257907167629, "lon": -132.38241190311993, "alt_km": 455.40950398997757, "timestamp": "2025-12-27T04:40:44.222685+00:00", "meta": {"OBJECT_NAME": "KUIPER-00183", "OBJECT_ID": "2025-301F", "EPOCH": "2025-12-26T18:34:23.768544", "MEAN_MOTION": 15.34130983, "ECCENTRICITY": 0.00112199, "INCLINATION": 51.8616, "RA_OF_ASC_NODE": 57.5624, "ARG_OF_PERICENTER": 149.9888, "MEAN_ANOMALY": 210.1743, "EPHEMERIS_TYPE": 0, "CLASSIFICATION_TYPE": "U", "NORAD_CAT_ID": 67138, "ELEMENT_SET_NO": 999, "REV_AT_EPOCH": 269, "BSTAR": 0.00098114345, "MEAN_MOTION_DOT": 0.00032724, "MEAN_MOTION_DDOT": 0}, "tle": {"line1": "1 67138U 25301F   25360.77388621  .00032724  00000+0  98114-3 0  9997", "line2": "2 67138  51.8616  57.5624 0011219 149.9888 210.1743 15.34130983  2696"}}, "geometry": {"type": "Point", "coordinates": [-132.38241190311993, 9.943257907167629]}}, {"type": "Feature", "properties": {"norad_id": 67139, "name": "KUIPER-00184", "group": "last-30-days", "lat": -3.8781311012943798, "lon": -121.44746046402516, "alt_km": 459.02174287574144, "timestamp": "2025-12-27T04:40:44.222699+00:00", "meta": {"OBJECT_NAME": "KUIPER-00184", "OBJECT_ID": "2025-301G", "EPOCH": "2025-12-26T15:22:21.745344", "MEAN_MOTION": 15.34443698, "ECCENTRICITY": 0.000899, "INCLINATION": 51.8629, "RA_OF_ASC_NODE": 58.1701, "ARG_OF_PERICENTER": 144.075, "MEAN_ANOMALY": 216.0841, "EPHEMERIS_TYPE": 0, "CLASSIFICATION_TYPE": "U", "NORAD_CAT_ID": 67139, "ELEMENT_SET_NO": 999, "REV_AT_EPOCH": 278, "BSTAR": 8.2317e-05, "MEAN_MOTION_DOT": 2.409e-05, "MEAN_MOTION_DDOT": 0}, "tle": {"line1": "1 67139U 25301G   25360.64052946  .00002409  00000+0  82317-4 0  9998", "line2": "2 67139  51.8629  58.1701 0008990 144.0750 216.0841 15.34443698  2784"}}, "geometry": {"type": "Point", "coordinates": [-121.44746046402516, -3.8781311012943798]}}, {"type": "Feature", "properties": {"norad_id": 67140, "name": "KUIPER-00186", "group": "last-30-days", "lat": -19.42325722685189, "lon": -108.46021695730322, "alt_km": 461.7703644080875, "timestamp": "2025-12-27T04:40:44.222709+00:00", "meta": {"OBJECT_NAME": "KUIPER-00186", "OBJECT_ID": "2025-301H", "EPOCH": "2025-12-26T18:24:57.394080", "MEAN_MOTION": 15.35057816, "ECCENTRICITY": 0.00077321, "INCLINATION": 51.8686, "RA_OF_ASC_NODE": 57.5207, "ARG_OF_PERICENTER": 133.157, "MEAN_ANOMALY": 227.0064, "EPHEMERIS_TYPE": 0, "CLASSIFICATION_TYPE": "U", "NORAD_CAT_ID": 67140, "ELEMENT_SET_NO": 999, "REV_AT_EPOCH": 252, "BSTAR": 0.00091971212, "MEAN_MOTION_DOT": 0.0003154, "MEAN_MOTION_DDOT": 0}, "tle": {"line1": "1 67140U 25301H   25360.76733095  .00031540  00000+0  91971-3 0  9997", "line2": "2 67140  51.8686  57.5207 0007732 133.1570 227.0064 15.35057816  2520"}}, "geometry": {"type": "Point", "coordinates": [-108.46021695730322, -19.42325722685189]}}, {"type": "Feature", "properties": {"norad_id": 67141, "name": "KUIPER-00187", "group": "last-30-days", "lat": -40.985907648587265, "lon": -81.57124818327522, "alt_km": 463.88339864570844, "timestamp": "2025-12-27T04:40:44.222719+00:00", "meta": {"OBJECT_NAME": "KUIPER-00187", "OBJECT_ID": "2025-301J", "EPOCH": "2025-12-26T21:24:27.345024", "MEAN_MOTION": 15.35874319, "ECCENTRICITY": 0.00043935, "INCLINATION": 51.872, "RA_OF_ASC_NODE": 56.8567, "ARG_OF_PERICENTER": 118.8271, "MEAN_ANOMALY": 241.3157, "EPHEMERIS_TYPE": 0, "CLASSIFICATION_TYPE": "U", "NORAD_CAT_ID": 67141, "ELEMENT_SET_NO": 999, "REV_AT_EPOCH": 254, "BSTAR": 0.0010151195, "MEAN_MOTION_DOT": 0.0003578, "MEAN_MOTION_DDOT": 0}, "tle": {"line1": "1 67141U 25301J   25360.89198316  .00035780  00000+0  10151-2 0  9993", "line2": "2 67141  51.8720  56.8567 0004393 118.8271 241.3157 15.35874319  2548"}}, "geometry": {"type": "Point", "coordinates": [-81.57124818327522, -40.985907648587265]}}, {"type": "Feature", "properties": {"norad_id": 67142, "name": "KUIPER-00188", "group": "last-30-days", "lat": -16.520099207945925, "lon": -111.06045242940766, "alt_km": 461.18786577934225, "timestamp": "2025-12-27T04:40:44.222731+00:00", "meta": {"OBJECT_NAME": "KUIPER-00188", "OBJECT_ID": "2025-301K", "EPOCH": "2025-12-26T18:25:54.546816", "MEAN_MOTION": 15.34963811, "ECCENTRICITY": 0.00073898, "INCLINATION": 51.8696, "RA_OF_ASC_NODE": 57.5251, "ARG_OF_PERICENTER": 137.8145, "MEAN_ANOMALY": 222.341, "EPHEMERIS_TYPE": 0, "CLASSIFICATION_TYPE": "U", "NORAD_CAT_ID": 67142, "ELEMENT_SET_NO": 999, "REV_AT_EPOCH": 252, "BSTAR": 0.00086555663, "MEAN_MOTION_DOT": 0.0002956, "MEAN_MOTION_DDOT": 0}, "tle": {"line1": "1 67142U 25301K   25360.76799244  .00029560  00000+0  86556-3 0  9999", "line2": "2 67142  51.8696  57.5251 0007389 137.8145 222.3410 15.34963811  2522"}}, "geometry": {"type": "Point", "coordinates": [-111.06045242940766, -16.520099207945925]}}]}